[
  {
    "pincode": "530001",
    "name": " Dr. A. Ramesh",
    "contact": " 0891-1234567",
    "location": " Dwaraka Nagar, Visakhapatnam",
    "timings": " 9:00 AM – 12:00 PM",
    "hospital": " District Government Hospital"
  },
  {
    "pincode": "532001",
    "name": " Dr. B. Lakshmi",
    "contact": " 08942-7654321",
    "location": " Day & Night Junction, Srikakulam",
    "timings": " 10:00 AM – 1:00 PM",
    "hospital": " District Government Hospital"
  },
  {
    "pincode": "535002",
    "name": " Dr. C. Srinivas",
    "contact": " 08922-234567",
    "location": " Fort Road, Vizianagaram",
    "timings": " 5:00 PM – 8:00 PM",
    "hospital": " District Government Hospital"
  },
  {
    "pincode": "531001",
    "name": " Dr. D. Anjali",
    "contact": " 08924-345678",
    "location": " Main Bazaar, Anakapalli",
    "timings": " 6:00 PM – 9:00 PM",
    "hospital": " District Government Hospital"
  },
  {
    "pincode": "533001",
    "name": " Dr. E. Mohan",
    "contact": " 0884-4567890",
    "location": " Suryaraopeta, Kakinada",
    "timings": " 8:00 AM – 11:00 AM",
    "hospital": " District Government Hospital"
  },
  {
    "pincode": "533201",
    "name": " Dr. F. Sita",
    "contact": " 08856-567890",
    "location": " Amalapuram, Konaseema",
    "timings": " 9:30 AM – 12:30 PM",
    "hospital": " District Government Hospital"
  },
  {
    "pincode": "534001",
    "name": " Dr. G. Prasad",
    "contact": " 08812-678901",
    "location": " Powerpet, Eluru",
    "timings": " 4:00 PM – 7:00 PM",
    "hospital": " District Government Hospital"
  },
  {
    "pincode": "534202",
    "name": " Dr. H. Radha",
    "contact": " 08813-789012",
    "location": " Bhimavaram, West Godavari",
    "timings": " 10:00 AM – 1:00 PM",
    "hospital": " District Government Hospital"
  },
  {
    "pincode": "521001",
    "name": " Dr. I. Kumar",
    "contact": " 08672-890123",
    "location": " Machilipatnam, Krishna",
    "timings": " 5:30 PM – 8:30 PM",
    "hospital": " District Government Hospital"
  },
  {
    "pincode": "520001",
    "name": " Dr. J. Meena",
    "contact": " 0866-901234",
    "location": " Labbipet, Vijayawada (NTR District)",
    "timings": " 9:00 AM – 12:00 PM",
    "hospital": " District Government Hospital"
  },
  {
    "pincode": "522002",
    "name": " Dr. K. Raju",
    "contact": " 0863-123456",
    "location": " Brodipet, Guntur",
    "timings": " 6:00 PM – 9:00 PM",
    "hospital": " K. Subba Rao Clinic, Guntur"
  },
  {
    "pincode": "522601",
    "name": " Dr. L. Anuradha",
    "contact": " 08649-234567",
    "location": " Narasaraopet, Palnadu",
    "timings": " 10:00 AM – 1:00 PM",
    "hospital": " Sri Datta Hospitals, Narasaraopet"
  },
  {
    "pincode": "523001",
    "name": " Dr. M. Suresh",
    "contact": " 08592-345678",
    "location": " Bhagyanagar, Ongole (Prakasam)",
    "timings": " 8:00 AM – 11:00 AM",
    "hospital": " Sri Krishna Hospital, Ongole"
  },
  {
    "pincode": "524001",
    "name": " Dr. N. Kavitha",
    "contact": " 0861-456789",
    "location": " Magunta Layout, Nellore",
    "timings": " 4:00 PM – 7:00 PM",
    "hospital": " Enel Hospital, Nellore"
  },
  {
    "pincode": "515001",
    "name": " Dr. O. Venkatesh",
    "contact": " 08554-567890",
    "location": " Clock Tower, Anantapur",
    "timings": " 9:00 AM – 12:00 PM",
    "hospital": " Dr. YSR Memorial Hospital, Anantapur"
  },
  {
    "pincode": "517001",
    "name": " Dr. P. Haritha",
    "contact": " 0877-678901",
    "location": " Kattamanchi, Chittoor",
    "timings": " 5:00 PM – 8:00 PM",
    "hospital": " Healing Earth Ayurveda Hospital, Chittoor"
  },
  {
    "pincode": "516001",
    "name": " Dr. Q. Narayana",
    "contact": " 08562-789012",
    "location": " YMR Colony, Kadapa",
    "timings": " 10:00 AM – 1:00 PM",
    "hospital": " Campbell Hospital, Kadapa"
  },
  {
    "pincode": "518001",
    "name": " Dr. R. Bhavani",
    "contact": " 08518-890123",
    "location": " Bellary Chowrasta, Kurnool",
    "timings": " 6:00 PM – 9:00 PM",
    "hospital": " Bhavani Prasad Clinic, Kurnool"
  },
  {
    "pincode": "518501",
    "name": " Dr. S. Mahesh",
    "contact": " 08514-901234",
    "location": " Nandyal Town, Nandyal",
    "timings": " 9:30 AM – 12:30 PM",
    "hospital": " AIIMS Mangalagiri Extension, Nandyal"
  },
  {
    "pincode": "515134",
    "name": " Dr. T. Deepa",
    "contact": " 08555-123456",
    "location": " Puttaparthi, Sri Sathya Sai",
    "timings": " 8:00 AM – 11:00 AM",
    "hospital": " Sri Sathya Sai Hospital, Puttaparthi"
  },
  {
    "pincode": "516269",
    "name": " Dr. U. Rajesh",
    "contact": " 08562-234567",
    "location": " Rayachoti, Annamayya",
    "timings": " 5:30 PM – 8:30 PM",
    "hospital": " AIG Hospitals, Kadapa"
  },
  {
    "pincode": "517501",
    "name": " Dr. V. Sneha",
    "contact": " 0877-345678",
    "location": " Balaji Colony, Tirupati",
    "timings": " 10:00 AM – 1:00 PM",
    "hospital": " Sankalpa Hospital, Tirupati"
  },
  {
    "pincode": "531213",
    "name": " Dr. W. Kiran",
    "contact": " 08932-456789",
    "location": " Paderu, Alluri Sitharama Raju",
    "timings": " 9:00 AM – 12:00 PM",
    "hospital": " District Government Hospital"
  },
  {
    "pincode": "531026",
    "name": " Dr. X. Usha Kumari",
    "contact": " 08924-567123",
    "location": " Araku Valley, ASR District",
    "timings": " 10:00 AM – 1:00 PM",
    "hospital": " District Government Hospital"
  },
  {
    "pincode": "531116",
    "name": " Dr. Y. Ravi Teja",
    "contact": " 08925-678123",
    "location": " Chintapalle, ASR District",
    "timings": " 5:00 PM – 8:00 PM",
    "hospital": " District Government Hospital"
  },
  {
    "pincode": "532222",
    "name": " Dr. Z. Prameela Devi",
    "contact": " 08944-654321",
    "location": " Palasa, Parvathipuram Manyam",
    "timings": " 8:30 AM – 11:30 AM",
    "hospital": " District Government Hospital"
  },
  {
    "pincode": "535501",
    "name": " Dr. A. Sunil Babu",
    "contact": " 08945-765123",
    "location": " Parvathipuram Town, Parvathipuram Manyam",
    "timings": " 6:00 PM – 9:00 PM",
    "hospital": " District Government Hospital"
  },
  {
    "pincode": "517234",
    "name": " Dr. B. Kruthika",
    "contact": " 08770-876543",
    "location": " Madanapalle, Annamayya",
    "timings": " 9:30 AM – 12:30 PM",
    "hospital": " Sri Sai Hospital, Madanapalle"
  },
  {
    "pincode": "524301",
    "name": " Dr. C. Bhaskar Rao",
    "contact": " 08625-432123",
    "location": " Kavali, Nellore District",
    "timings": " 4:00 PM – 7:00 PM",
    "hospital": " District Government Hospital"
  },
  {
    "pincode": "521185",
    "name": " Dr. D. Padmaja",
    "contact": " 08678-654321",
    "location": " Jaggaiahpet, NTR District",
    "timings": " 10:00 AM – 1:00 PM",
    "hospital": " District Government Hospital"
  }
]